     2              NAVIGATION DATA                         RINEX VERSION / TYPE
CCRINEXN V1.6.0 UX  CDDIS               02-MAR-19 17:31     PGM / RUN BY / DATE 
IGS BROADCAST EPHEMERIS FILE                                COMMENT             
    0.9313D-08  0.0000D+00 -0.5960D-07  0.0000D+00          ION ALPHA           
    0.9011D+05  0.0000D+00 -0.1966D+06  0.0000D+00          ION BETA            
   -0.279396772385D-08-0.355271367880D-14    61440     2043 DELTA-UTC: A0,A1,T,W
    18                                                      LEAP SECONDS        
                                                            END OF HEADER       
19 19  3  1 14  0  0.0-0.347161665559D-03 0.420641299570D-11 0.000000000000D+00
    0.930000000000D+02 0.270312500000D+02 0.405374028313D-08-0.128954484889D+00
    0.149756669998D-05 0.941720162518D-02 0.366941094399D-05 0.515362406731D+04
    0.482400000000D+06-0.147148966789D-06-0.230659359586D+01 0.115483999252D-06
    0.981658829048D+00 0.321781250000D+03 0.135138485088D+01-0.816676875013D-08
    0.173578658819D-09 0.100000000000D+01 0.204200000000D+04 0.000000000000D+00
    0.280000000000D+01 0.000000000000D+00-0.153668224812D-07 0.930000000000D+02
    0.475218000000D+06 0.400000000000D+01 0.000000000000D+00 0.000000000000D+00
20 19  3  1 14  0  0.0 0.522684305906D-03 0.341060513165D-12 0.000000000000D+00
    0.300000000000D+01-0.534375000000D+02 0.511664177694D-08 0.904374012385D+00
   -0.279024243355D-05 0.438613421284D-02 0.100377947092D-04 0.515367742348D+04
    0.482400000000D+06 0.335276126862D-07-0.428826368854D+00-0.484287738800D-07
    0.930408278074D+00 0.169437500000D+03 0.229721746716D+01-0.823570012187D-08
    0.306441344522D-09 0.100000000000D+01 0.204200000000D+04 0.000000000000D+00
    0.200000000000D+01 0.000000000000D+00-0.838190317154D-08 0.300000000000D+01
    0.475230000000D+06 0.000000000000D+00 0.000000000000D+00 0.000000000000D+00
22 19  3  1 14  0  0.0-0.655395910144D-03-0.784439180279D-11 0.000000000000D+00
    0.580000000000D+02-0.543125000000D+02 0.517985861905D-08 0.263624203041D+01
   -0.297278165817D-05 0.722805166151D-02 0.970438122749D-05 0.515356974029D+04
    0.482400000000D+06 0.162050127983D-06-0.379875143279D+00-0.465661287308D-07
    0.927158194900D+00 0.175750000000D+03-0.141187808463D+01-0.812605276843D-08
    0.224295057075D-09 0.100000000000D+01 0.204200000000D+04 0.000000000000D+00
    0.200000000000D+01 0.000000000000D+00-0.181607902050D-07 0.580000000000D+02
    0.000000000000D+00 0.400000000000D+01 0.000000000000D+00 0.000000000000D+00
23 19  3  1 14  0  0.0-0.195573084056D-03 0.136424205266D-11 0.000000000000D+00
    0.290000000000D+02 0.204375000000D+02 0.529129184912D-08 0.198817926035D+01
    0.925734639168D-06 0.128498964477D-01 0.694580376148D-05 0.515362738419D+04
    0.482400000000D+06-0.296160578728D-06 0.717805468667D+00-0.212341547012D-06
    0.943466808574D+00 0.241218750000D+03-0.229369599806D+01-0.829034529915D-08
    0.277154410533D-09 0.100000000000D+01 0.204200000000D+04 0.000000000000D+00
    0.200000000000D+01 0.000000000000D+00-0.200234353542D-07 0.290000000000D+02
    0.475200000000D+06 0.000000000000D+00 0.000000000000D+00 0.000000000000D+00
24 19  3  1 14  0  0.0-0.628060661256D-04-0.454747350886D-12 0.000000000000D+00
    0.540000000000D+02 0.431250000000D+01 0.525557597442D-08 0.151655799971D+01
    0.314787030220D-06 0.821943639312D-02 0.750832259655D-05 0.515372376823D+04
    0.482400000000D+06-0.912696123123D-07 0.173436616130D+01 0.158324837685D-06
    0.938913944186D+00 0.224937500000D+03 0.597841052788D+00-0.836927682713D-08
   -0.481091444460D-09 0.100000000000D+01 0.204200000000D+04 0.000000000000D+00
    0.200000000000D+01 0.000000000000D+00 0.279396772385D-08 0.540000000000D+02
    0.475230000000D+06 0.000000000000D+00 0.000000000000D+00 0.000000000000D+00
25 19  3  1 14  0  0.0-0.727229751646D-03-0.522959453519D-11 0.000000000000D+00
    0.300000000000D+02 0.797500000000D+02 0.412874356925D-08-0.429635621488D+00
    0.412948429585D-05 0.828017701860D-02 0.850483775139D-05 0.515375307274D+04
    0.482400000000D+06 0.409781932831D-07 0.283401269084D+01 0.135973095894D-06
    0.971453825591D+00 0.220156250000D+03 0.861421333176D+00-0.799176103072D-08
   -0.137862887772D-09 0.100000000000D+01 0.204200000000D+04 0.000000000000D+00
    0.200000000000D+01 0.000000000000D+00 0.558793544769D-08 0.300000000000D+02
    0.475230000000D+06 0.000000000000D+00 0.000000000000D+00 0.000000000000D+00
26 19  3  1 14  0  0.0 0.137555878609D-03 0.102318153950D-10 0.000000000000D+00
    0.240000000000D+02 0.744062500000D+02 0.441804104412D-08-0.110580836389D+01
    0.382028520107D-05 0.368803681340D-02 0.913254916668D-05 0.515356595993D+04
    0.482400000000D+06 0.335276126862D-07 0.280705611528D+01-0.111758708954D-06
    0.952782656273D+00 0.200187500000D+03 0.119423193244D+00-0.799390420525D-08
   -0.143220255100D-09 0.100000000000D+01 0.204200000000D+04 0.000000000000D+00
    0.200000000000D+01 0.000000000000D+00 0.745058059692D-08 0.240000000000D+02
    0.481230000000D+06 0.000000000000D+00 0.000000000000D+00 0.000000000000D+00
27 19  3  1 14  0  0.0-0.772378407419D-04-0.761701812735D-11 0.000000000000D+00
    0.520000000000D+02 0.456250000000D+02 0.410767110099D-08-0.287734397032D+01
    0.234507024288D-05 0.676796853077D-02 0.362098217010D-05 0.515363690948D+04
    0.482400000000D+06-0.540167093277D-07-0.240865563221D+01-0.279396772385D-07
    0.978493598049D+00 0.321031250000D+03 0.435879519697D+00-0.804319217410D-08
    0.220009164265D-09 0.100000000000D+01 0.204200000000D+04 0.000000000000D+00
    0.200000000000D+01 0.000000000000D+00 0.139698386192D-08 0.520000000000D+02
    0.000000000000D+00 0.400000000000D+01 0.000000000000D+00 0.000000000000D+00
28 19  3  1 14  0  0.0 0.765553675592D-03 0.682121026330D-12 0.000000000000D+00
    0.260000000000D+02 0.737500000000D+02 0.363943731146D-08-0.205072876298D+01
    0.393018126488D-05 0.192257827148D-01 0.871717929840D-05 0.515370718956D+04
    0.482400000000D+06 0.284984707832D-06 0.292013194251D+01 0.281259417534D-06
    0.983322983212D+00 0.222843750000D+03-0.147135544905D+01-0.742459497847D-08
   -0.137148569931D-09 0.100000000000D+01 0.204200000000D+04 0.000000000000D+00
    0.200000000000D+01 0.000000000000D+00-0.111758708954D-07 0.260000000000D+02
    0.475200000000D+06 0.400000000000D+01 0.000000000000D+00 0.000000000000D+00
29 19  3  1 14  0  0.0 0.259421765804D-03-0.875388650456D-11 0.000000000000D+00
    0.750000000000D+02 0.225937500000D+02 0.408088407511D-08-0.205576887272D+01
    0.118836760521D-05 0.750521547161D-03 0.320374965668D-05 0.515355681038D+04
    0.482400000000D+06 0.186264514923D-08-0.234201154330D+01-0.242143869400D-07
    0.985342826890D+00 0.331218750000D+03 0.144875092750D+01-0.807640798684D-08
    0.101432799660D-09 0.100000000000D+01 0.204200000000D+04 0.000000000000D+00
    0.200000000000D+01 0.000000000000D+00-0.102445483208D-07 0.750000000000D+02
    0.475230000000D+06 0.000000000000D+00 0.000000000000D+00 0.000000000000D+00
31 19  3  1 14  0  0.0 0.552274286747D-04-0.272848410532D-11 0.000000000000D+00
    0.590000000000D+02 0.331250000000D+01 0.471198191576D-08 0.208082967468D+00
    0.931322574615D-07 0.925745489076D-02 0.776164233684D-05 0.515356636238D+04
    0.482400000000D+06 0.139698386192D-06 0.181257621806D+01-0.372529029846D-07
    0.960359844854D+00 0.227468750000D+03-0.106333327038D-01-0.815069700622D-08
   -0.505021024999D-09 0.100000000000D+01 0.204200000000D+04 0.000000000000D+00
    0.200000000000D+01 0.000000000000D+00-0.135041773319D-07 0.590000000000D+02
    0.475440000000D+06 0.000000000000D+00 0.000000000000D+00 0.000000000000D+00
32 19  3  1 14  0  0.0-0.202625058591D-03 0.188720150618D-10 0.000000000000D+00
    0.920000000000D+02 0.149062500000D+02 0.494699170517D-08-0.215261254130D+01
    0.825151801109D-06 0.264272617642D-02 0.678375363350D-05 0.515375284195D+04
    0.482400000000D+06 0.577419996262D-07 0.728384818231D+00-0.391155481338D-07
    0.956934005240D+00 0.246312500000D+03-0.260746242778D+01-0.810890909975D-08
    0.223937896004D-09 0.100000000000D+01 0.204200000000D+04 0.000000000000D+00
    0.200000000000D+01 0.000000000000D+00 0.465661287308D-09 0.920000000000D+02
    0.475230000000D+06 0.000000000000D+00 0.000000000000D+00 0.000000000000D+00
 1 19  3  1 15 59 44.0-0.172403175384D-03-0.727595761418D-11 0.000000000000D+00
    0.100000000000D+02-0.970937500000D+02 0.409909931537D-08 0.227433985392D+01
   -0.498630106449D-05 0.843348610215D-02 0.524148344994D-05 0.515366350555D+04
    0.489584000000D+06-0.100582838059D-06-0.135276732456D+01-0.117346644402D-06
    0.974296765497D+00 0.286875000000D+03 0.684351535565D+00-0.800069040373D-08
   -0.703600736366D-10 0.100000000000D+01 0.204200000000D+04 0.000000000000D+00
    0.200000000000D+01 0.000000000000D+00 0.558793544769D-08 0.100000000000D+02
    0.000000000000D+00 0.400000000000D+01 0.000000000000D+00 0.000000000000D+00
 2 19  3  1 15 59 44.0-0.152454711497D-03-0.977706804406D-11 0.000000000000D+00
    0.250000000000D+02-0.845312500000D+02 0.444447084434D-08 0.257827719747D+01
   -0.440143048763D-05 0.189161829185D-01 0.436976552010D-05 0.515366593933D+04
    0.489584000000D+06 0.165775418282D-06-0.141972290237D+01-0.150874257088D-06
    0.953392205961D+00 0.287406250000D+03-0.176729342341D+01-0.789032866386D-08
   -0.108218793461D-09 0.100000000000D+01 0.204200000000D+04 0.000000000000D+00
    0.200000000000D+01 0.000000000000D+00-0.204890966415D-07 0.250000000000D+02
    0.482418000000D+06 0.400000000000D+01 0.000000000000D+00 0.000000000000D+00
